GREENCUBE (IO-117)      
1 53109U 22080E   26088.03154629 -.00000003  00000+0  00000+0 0  9996
2 53109  70.1557 326.1322 0009006 307.1724  52.8113  6.42583202 86919
UMKA 1 (RS40S)          
1 57172U 23091G   26088.19328928  .00009344  00000+0  43731-3 0  9993
2 57172  97.5142 147.2194 0013933  44.7381 315.4975 15.19878260151857
CUBESX-HSE 3 (RS42S)    
1 57178U 23091N   26088.13298461  .00016259  00000+0  57529-3 0  9994
2 57178  97.5173 152.8037 0011275  24.2762 335.9007 15.29175070152188
MONITOR-3 (RS58S)       
1 57180U 23091Q   26088.18811067  .00016441  00000+0  63607-3 0  9992
2 57180  97.5168 151.1147 0012400  29.2762 330.9169 15.26211520152086
MONITOR-4 (RS57S)       
1 57182U 23091S   26088.17211862  .00015994  00000+0  61726-3 0  9992
2 57182  97.5163 151.0645 0012395  29.8789 330.3155 15.26300858152085
MONITOR-2 (RS39S)       
1 57184U 23091U   26088.18452353  .00007443  00000+0  36717-3 0  9999
2 57184  97.5165 146.9949 0012139  38.3154 321.8940 15.18143174151810
SVYATOBOR 1 (RS60S)     
1 57187U 23091X   26088.18780132  .00014623  00000+0  58375-3 0  9993
2 57187  97.5173 151.6155 0009852  23.6197 336.5491 15.25218997152118
VIZARD-METEO (RS38S)    
1 57189U 23091Z   26088.14817044  .00021214  00000+0  65691-3 0  9997
2 57189  97.5163 156.1615 0007147   7.9510 352.1844 15.33458465152413
NANOZOND 1 (RS49S)      
1 57190U 23091AA  26087.94307008  .00459710  00000+0  18692-2 0  9994
2 57190  97.4993 169.8709 0005072 263.8136  96.2556 15.85051341153317
POLYTECH-UNIVERSE 3 (R*)
1 57191U 23091AB  26088.15621954  .00006550  00000+0  32123-3 0  9994
2 57191  97.5142 146.4727 0016875  52.4550 307.8214 15.18332733151808
UTMN 2 (RS27S)          
1 57203U 23091AP  26088.13015331  .00016900  00000+0  58256-3 0  9997
2 57203  97.5165 154.3357 0008151  14.0942 346.0524 15.30047503152296
KUZGTU 1 (RS47S)        
1 57217U 23091AV  26088.12347656  .00016004  00000+0  58691-3 0  9997
2 57217  97.5147 151.8709 0011582  27.4846 332.7003 15.27999678152140
SONATE-2                
1 59112U 24043Q   26088.19385097  .00056762  00000+0  90853-3 0  9990
2 59112  97.5425 234.0878 0007967 136.1587 224.0299 15.52913411115450
MESAT1                  
1 60209U 24125G   26088.14053642  .00053811  00000+0  78524-3 0  9996
2 60209  97.2430 304.2147 0012589 149.0749 211.1250 15.55418640 97090
OOV-CUBE (TUBSAT-30)    
1 60240U 24128F   26087.53237420  .00002300  00000+0  18378-3 0  9992
2 60240  61.9947 146.7290 0052931 116.2323 244.4223 15.02370641 93997
COLIBRI-S (RS67S)       
1 61746U 24199M   26088.19333740  .00030535  00000+0  66122-3 0  9998
2 61746  97.3131 321.4597 0008473 200.0790 160.0127 15.44360663125059
