[{"OBJECT_NAME":"GREENCUBE (IO-117)","OBJECT_ID":"2022-080E","EPOCH":"2026-03-29T00:45:25.599456","MEAN_MOTION":6.42583202,"ECCENTRICITY":0.0009006,"INCLINATION":70.1557,"RA_OF_ASC_NODE":326.1322,"ARG_OF_PERICENTER":307.1724,"MEAN_ANOMALY":52.8113,"EPHEMERIS_TYPE":0,"CLASSIFICATION_TYPE":"U","NORAD_CAT_ID":53109,"ELEMENT_SET_NO":999,"REV_AT_EPOCH":8691,"BSTAR":0,"MEAN_MOTION_DOT":-3.0e-8,"MEAN_MOTION_DDOT":0},{"OBJECT_NAME":"UMKA 1 (RS40S)","OBJECT_ID":"2023-091G","EPOCH":"2026-03-29T04:38:20.193792","MEAN_MOTION":15.1987826,"ECCENTRICITY":0.0013933,"INCLINATION":97.5142,"RA_OF_ASC_NODE":147.2194,"ARG_OF_PERICENTER":44.7381,"MEAN_ANOMALY":315.4975,"EPHEMERIS_TYPE":0,"CLASSIFICATION_TYPE":"U","NORAD_CAT_ID":57172,"ELEMENT_SET_NO":999,"REV_AT_EPOCH":15185,"BSTAR":0.00043731,"MEAN_MOTION_DOT":9.344e-5,"MEAN_MOTION_DDOT":0},{"OBJECT_NAME":"CUBESX-HSE 3 (RS42S)","OBJECT_ID":"2023-091N","EPOCH":"2026-03-29T03:11:29.870304","MEAN_MOTION":15.2917507,"ECCENTRICITY":0.0011275,"INCLINATION":97.5173,"RA_OF_ASC_NODE":152.8037,"ARG_OF_PERICENTER":24.2762,"MEAN_ANOMALY":335.9007,"EPHEMERIS_TYPE":0,"CLASSIFICATION_TYPE":"U","NORAD_CAT_ID":57178,"ELEMENT_SET_NO":999,"REV_AT_EPOCH":15218,"BSTAR":0.00057529,"MEAN_MOTION_DOT":0.00016259,"MEAN_MOTION_DDOT":0},{"OBJECT_NAME":"MONITOR-3 (RS58S)","OBJECT_ID":"2023-091Q","EPOCH":"2026-03-29T04:30:52.761888","MEAN_MOTION":15.2621152,"ECCENTRICITY":0.00124,"INCLINATION":97.5168,"RA_OF_ASC_NODE":151.1147,"ARG_OF_PERICENTER":29.2762,"MEAN_ANOMALY":330.9169,"EPHEMERIS_TYPE":0,"CLASSIFICATION_TYPE":"U","NORAD_CAT_ID":57180,"ELEMENT_SET_NO":999,"REV_AT_EPOCH":15208,"BSTAR":0.00063607,"MEAN_MOTION_DOT":0.00016441,"MEAN_MOTION_DDOT":0},{"OBJECT_NAME":"MONITOR-4 (RS57S)","OBJECT_ID":"2023-091S","EPOCH":"2026-03-29T04:07:51.048768","MEAN_MOTION":15.26300858,"ECCENTRICITY":0.0012395,"INCLINATION":97.5163,"RA_OF_ASC_NODE":151.0645,"ARG_OF_PERICENTER":29.8789,"MEAN_ANOMALY":330.3155,"EPHEMERIS_TYPE":0,"CLASSIFICATION_TYPE":"U","NORAD_CAT_ID":57182,"ELEMENT_SET_NO":999,"REV_AT_EPOCH":15208,"BSTAR":0.00061726,"MEAN_MOTION_DOT":0.00015994,"MEAN_MOTION_DDOT":0},{"OBJECT_NAME":"MONITOR-2 (RS39S)","OBJECT_ID":"2023-091U","EPOCH":"2026-03-29T04:25:42.832992","MEAN_MOTION":15.18143174,"ECCENTRICITY":0.0012139,"INCLINATION":97.5165,"RA_OF_ASC_NODE":146.9949,"ARG_OF_PERICENTER":38.3154,"MEAN_ANOMALY":321.894,"EPHEMERIS_TYPE":0,"CLASSIFICATION_TYPE":"U","NORAD_CAT_ID":57184,"ELEMENT_SET_NO":999,"REV_AT_EPOCH":15181,"BSTAR":0.00036717,"MEAN_MOTION_DOT":7.443e-5,"MEAN_MOTION_DDOT":0},{"OBJECT_NAME":"SVYATOBOR 1 (RS60S)","OBJECT_ID":"2023-091X","EPOCH":"2026-03-29T04:30:26.034048","MEAN_MOTION":15.25218997,"ECCENTRICITY":0.0009852,"INCLINATION":97.5173,"RA_OF_ASC_NODE":151.6155,"ARG_OF_PERICENTER":23.6197,"MEAN_ANOMALY":336.5491,"EPHEMERIS_TYPE":0,"CLASSIFICATION_TYPE":"U","NORAD_CAT_ID":57187,"ELEMENT_SET_NO":999,"REV_AT_EPOCH":15211,"BSTAR":0.00058375,"MEAN_MOTION_DOT":0.00014623,"MEAN_MOTION_DDOT":0},{"OBJECT_NAME":"VIZARD-METEO (RS38S)","OBJECT_ID":"2023-091Z","EPOCH":"2026-03-29T03:33:21.926016","MEAN_MOTION":15.33458465,"ECCENTRICITY":0.0007147,"INCLINATION":97.5163,"RA_OF_ASC_NODE":156.1615,"ARG_OF_PERICENTER":7.951,"MEAN_ANOMALY":352.1844,"EPHEMERIS_TYPE":0,"CLASSIFICATION_TYPE":"U","NORAD_CAT_ID":57189,"ELEMENT_SET_NO":999,"REV_AT_EPOCH":15241,"BSTAR":0.00065691,"MEAN_MOTION_DOT":0.00021214,"MEAN_MOTION_DDOT":0},{"OBJECT_NAME":"NANOZOND 1 (RS49S)","OBJECT_ID":"2023-091AA","EPOCH":"2026-03-28T22:38:01.254912","MEAN_MOTION":15.85051341,"ECCENTRICITY":0.0005072,"INCLINATION":97.4993,"RA_OF_ASC_NODE":169.8709,"ARG_OF_PERICENTER":263.8136,"MEAN_ANOMALY":96.2556,"EPHEMERIS_TYPE":0,"CLASSIFICATION_TYPE":"U","NORAD_CAT_ID":57190,"ELEMENT_SET_NO":999,"REV_AT_EPOCH":15331,"BSTAR":0.0018692,"MEAN_MOTION_DOT":0.0045971,"MEAN_MOTION_DDOT":0},{"OBJECT_NAME":"POLYTECH-UNIVERSE 3 (RS46S)","OBJECT_ID":"2023-091AB","EPOCH":"2026-03-29T03:44:57.368256","MEAN_MOTION":15.18332733,"ECCENTRICITY":0.0016875,"INCLINATION":97.5142,"RA_OF_ASC_NODE":146.4727,"ARG_OF_PERICENTER":52.455,"MEAN_ANOMALY":307.8214,"EPHEMERIS_TYPE":0,"CLASSIFICATION_TYPE":"U","NORAD_CAT_ID":57191,"ELEMENT_SET_NO":999,"REV_AT_EPOCH":15180,"BSTAR":0.00032123,"MEAN_MOTION_DOT":6.55e-5,"MEAN_MOTION_DDOT":0},{"OBJECT_NAME":"UTMN 2 (RS27S)","OBJECT_ID":"2023-091AP","EPOCH":"2026-03-29T03:07:25.245984","MEAN_MOTION":15.30047503,"ECCENTRICITY":0.0008151,"INCLINATION":97.5165,"RA_OF_ASC_NODE":154.3357,"ARG_OF_PERICENTER":14.0942,"MEAN_ANOMALY":346.0524,"EPHEMERIS_TYPE":0,"CLASSIFICATION_TYPE":"U","NORAD_CAT_ID":57203,"ELEMENT_SET_NO":999,"REV_AT_EPOCH":15229,"BSTAR":0.00058256,"MEAN_MOTION_DOT":0.000169,"MEAN_MOTION_DDOT":0},{"OBJECT_NAME":"KUZGTU 1 (RS47S)","OBJECT_ID":"2023-091AV","EPOCH":"2026-03-29T02:57:48.374784","MEAN_MOTION":15.27999678,"ECCENTRICITY":0.0011582,"INCLINATION":97.5147,"RA_OF_ASC_NODE":151.8709,"ARG_OF_PERICENTER":27.4846,"MEAN_ANOMALY":332.7003,"EPHEMERIS_TYPE":0,"CLASSIFICATION_TYPE":"U","NORAD_CAT_ID":57217,"ELEMENT_SET_NO":999,"REV_AT_EPOCH":15214,"BSTAR":0.00058691,"MEAN_MOTION_DOT":0.00016004,"MEAN_MOTION_DDOT":0},{"OBJECT_NAME":"SONATE-2","OBJECT_ID":"2024-043Q","EPOCH":"2026-03-29T04:39:08.723808","MEAN_MOTION":15.52913411,"ECCENTRICITY":0.0007967,"INCLINATION":97.5425,"RA_OF_ASC_NODE":234.0878,"ARG_OF_PERICENTER":136.1587,"MEAN_ANOMALY":224.0299,"EPHEMERIS_TYPE":0,"CLASSIFICATION_TYPE":"U","NORAD_CAT_ID":59112,"ELEMENT_SET_NO":999,"REV_AT_EPOCH":11545,"BSTAR":0.00090853,"MEAN_MOTION_DOT":0.00056762,"MEAN_MOTION_DDOT":0},{"OBJECT_NAME":"MESAT1","OBJECT_ID":"2024-125G","EPOCH":"2026-03-29T03:22:22.346688","MEAN_MOTION":15.5541864,"ECCENTRICITY":0.0012589,"INCLINATION":97.243,"RA_OF_ASC_NODE":304.2147,"ARG_OF_PERICENTER":149.0749,"MEAN_ANOMALY":211.125,"EPHEMERIS_TYPE":0,"CLASSIFICATION_TYPE":"U","NORAD_CAT_ID":60209,"ELEMENT_SET_NO":999,"REV_AT_EPOCH":9709,"BSTAR":0.00078524,"MEAN_MOTION_DOT":0.00053811,"MEAN_MOTION_DDOT":0},{"OBJECT_NAME":"OOV-CUBE (TUBSAT-30)","OBJECT_ID":"2024-128F","EPOCH":"2026-03-28T12:46:37.130880","MEAN_MOTION":15.02370641,"ECCENTRICITY":0.00529314,"INCLINATION":61.9947,"RA_OF_ASC_NODE":146.729,"ARG_OF_PERICENTER":116.2323,"MEAN_ANOMALY":244.4223,"EPHEMERIS_TYPE":0,"CLASSIFICATION_TYPE":"U","NORAD_CAT_ID":60240,"ELEMENT_SET_NO":999,"REV_AT_EPOCH":9399,"BSTAR":0.00018377531,"MEAN_MOTION_DOT":2.3e-5,"MEAN_MOTION_DDOT":0},{"OBJECT_NAME":"COLIBRI-S (RS67S)","OBJECT_ID":"2024-199M","EPOCH":"2026-03-29T04:38:24.351360","MEAN_MOTION":15.44360663,"ECCENTRICITY":0.0008473,"INCLINATION":97.3131,"RA_OF_ASC_NODE":321.4597,"ARG_OF_PERICENTER":200.079,"MEAN_ANOMALY":160.0127,"EPHEMERIS_TYPE":0,"CLASSIFICATION_TYPE":"U","NORAD_CAT_ID":61746,"ELEMENT_SET_NO":999,"REV_AT_EPOCH":12505,"BSTAR":0.00066122,"MEAN_MOTION_DOT":0.00030535,"MEAN_MOTION_DDOT":0}]
